{
    "links": {
        "self": "http://www.neowsapp.com/rest/v1/neo/3512345?api_key=iIulBulltgU6a56xZRHN4H3l9WmuAYTsLGpBGhQ2"
    },
    "id": "3512345",
    "neo_reference_id": "3512345",
    "name": "(2010 FA6)",
    "designation": "2010 FA6",
    "nasa_jpl_url": "http://ssd.jpl.nasa.gov/sbdb.cgi?sstr=3512345",
    "absolute_magnitude_h": 24.2,
    "estimated_diameter": {
        "kilometers": {
            "estimated_diameter_min": 0.0384197891,
            "estimated_diameter_max": 0.0859092601
        },
        "meters": {
            "estimated_diameter_min": 38.4197891064,
            "estimated_diameter_max": 85.9092601232
        },
        "miles": {
            "estimated_diameter_min": 0.0238729428,
            "estimated_diameter_max": 0.0533815229
        },
        "feet": {
            "estimated_diameter_min": 126.0491808919,
            "estimated_diameter_max": 281.8545369825
        }
    },
    "is_potentially_hazardous_asteroid": false,
    "close_approach_data": [
        {
            "close_approach_date": "2010-04-19",
            "close_approach_date_full": "2010-Apr-19 03:49",
            "epoch_date_close_approach": 1271648940000,
            "relative_velocity": {
                "kilometers_per_second": "6.533045973",
                "kilometers_per_hour": "23518.9655028623",
                "miles_per_hour": "14613.7705370424"
            },
            "miss_distance": {
                "astronomical": "0.1087671931",
                "lunar": "42.3104381159",
                "kilometers": "16271340.413638697",
                "miles": "10110542.1009681386"
            },
            "orbiting_body": "Earth"
        }
    ],
    "orbital_data": {
        "orbit_id": "8",
        "orbit_determination_date": "2017-04-06 08:58:05",
        "first_observation_date": "2010-03-18",
        "last_observation_date": "2010-04-06",
        "data_arc_in_days": 19,
        "observations_used": 29,
        "orbit_uncertainty": "8",
        "minimum_orbit_intersection": ".108867",
        "jupiter_tisserand_invariant": "3.948",
        "epoch_osculation": "2455276.5",
        "eccentricity": ".4090408284749814",
        "semi_major_axis": "1.804649195742828",
        "inclination": "7.866577457505427",
        "ascending_node_longitude": "356.7823346488952",
        "orbital_period": "885.4980625976",
        "perihelion_distance": "1.066473993609473",
        "perihelion_argument": "230.3025119657821",
        "aphelion_distance": "2.542824397876184",
        "perihelion_time": "2455322.873297283888",
        "mean_anomaly": "341.1468960494088",
        "mean_motion": ".4065508612677745",
        "equinox": "J2000",
        "orbit_class": {
            "orbit_class_type": "AMO",
            "orbit_class_description": "Near-Earth asteroid orbits similar to that of 1221 Amor",
            "orbit_class_range": "1.017 AU < q (perihelion) < 1.3 AU"
        }
    },
    "is_sentry_object": false
}